OBJECT_NAME,OBJECT_ID,EPOCH,MEAN_MOTION,ECCENTRICITY,INCLINATION,RA_OF_ASC_NODE,ARG_OF_PERICENTER,MEAN_ANOMALY,EPHEMERIS_TYPE,CLASSIFICATION_TYPE,NORAD_CAT_ID,ELEMENT_SET_NO,REV_AT_EPOCH,BSTAR,MEAN_MOTION_DOT,MEAN_MOTION_DDOT
TANSAT,2016-081A,2026-07-01T15:22:56.078112,14.59961752,.00190876,98.5359,183.3257,264.8743,95.0278,0,U,41898,999,50673,.51620735E-4,.197E-5,0
JILIN-1 03,2017-002B,2026-07-01T15:06:14.067936,15.41926993,.00079026,97.1942,189.5128,114.9251,245.2819,0,U,41914,999,52408,.37518119E-3,.15899E-3,0
CARTOSAT-2D,2017-008A,2026-07-01T15:33:45.304992,15.19317886,.00051665,97.4098,241.6848,177.5948,182.5312,0,U,41948,999,51977,.30568885E-3,.6391E-4,0
CARTOSAT-2E,2017-036C,2026-07-01T14:24:32.894208,15.19277709,.00023306,97.4269,242.1654,242.5200,117.5798,0,U,42767,999,50033,.2682391E-3,.5591E-4,0
IRIDIUM 113,2017-039A,2026-07-01T02:58:59.252160,14.34216821,.00020825,86.3980,316.3529,90.0078,270.1356,0,U,42803,999,47318,-.28653134E-4,-.6E-6,0
NORSAT 2,2017-042D,2026-07-01T05:28:30.349056,15.22193847,.0009352,97.4041,355.4479,10.4138,349.7291,0,U,42828,999,48987,.5876E-3,.13452E-3,0
TECHNOSAT,2017-042E,2026-07-01T00:17:23.877024,15.05039143,.00188103,97.4293,339.1453,50.5615,309.7273,0,U,42829,999,48878,.20199254E-3,.282E-4,0
FLYING LAPTOP,2017-042G,2026-07-01T15:35:43.552032,15.01238707,.00200159,97.4751,337.6318,75.5812,284.7632,0,U,42831,999,48862,.35368308E-3,.4505E-4,0
WNISAT 1R,2017-042L,2026-07-01T05:12:53.727264,15.01820556,.0012019,97.4836,337.8382,105.7604,254.4948,0,U,42835,999,48861,.2013E-3,.2571E-4,0
LEMUR-2-GREENBERG,2017-042N,2026-07-01T11:03:50.008608,15.31767963,.00073837,97.3818,3.0237,318.3895,41.6784,0,U,42837,999,49057,.74361917E-3,.22792E-3,0
LEMUR-2-FURIAUS,2017-042R,2026-07-01T11:09:09.484704,15.30720188,.000709,97.3765,0.9501,22.2309,337.9238,0,U,42840,999,49039,.78284768E-3,.2323E-3,0
CORVUS BC2,2017-042X,2026-06-30T09:56:15.662688,15.06373686,.00143013,97.4068,342.2504,69.6054,290.6709,0,U,42846,999,48905,.20104795E-3,.2906E-4,0
CORVUS BC1,2017-042Y,2026-07-01T00:07:11.628480,15.06544991,.00126583,97.4105,343.6415,46.1860,314.0412,0,U,42847,999,48917,.29070862E-3,.4247E-4,0
VRSS-2,2017-060A,2026-07-01T15:26:52.330272,14.81216762,.00184406,97.6503,219.7190,55.3672,304.9277,0,U,42954,999,47059,.78717284E-4,.565E-5,0
MOHAMMED VI-A,2017-070A,2026-07-01T15:21:38.215296,14.77089284,.00011987,97.9559,254.7720,83.3023,276.8323,0,U,43005,999,46611,.1822305E-3,.1236E-4,0
FENGYUN 3D,2017-072A,2026-07-01T14:16:20.136864,14.19741243,.00022093,99.0130,157.2776,38.5552,321.5781,0,U,43010,999,44703,-.93169361E-4,-.243E-5,0
NOAA 20 (JPSS-1),2017-073A,2026-07-01T14:12:29.015136,14.19514335,.00008368,98.7773,121.9267,133.0369,227.0877,0,U,43013,999,44651,.53440248E-4,.68E-6,0
MAKERSAT 0,2017-073D,2026-07-01T05:17:01.250304,15.32553580,.01048837,97.4603,64.8514,222.2332,137.0798,0,U,43016,999,46861,.64730326E-3,.24201E-3,0
RADFXSAT (FOX-1B),2017-073E,2026-07-01T15:03:14.762016,15.12909396,.01482279,97.4683,49.5473,278.8639,79.5834,0,U,43017,999,46757,.33155845E-3,.7579E-4,0
JILIN-1 04,2017-074A,2026-07-01T14:47:41.264448,15.42815051,.00050109,97.4874,292.6172,135.4583,224.7068,0,U,43022,999,47649,.35779951E-3,.156E-3,0
JILIN-1 05,2017-074B,2026-07-01T14:27:52.644960,15.34099686,.00056274,97.4880,288.9538,163.8482,196.2941,0,U,43023,999,47621,.28871787E-3,.9452E-4,0
JILIN-1 06,2017-074C,2026-07-01T13:49:47.018496,15.33863712,.00069945,97.4806,285.9181,176.6628,183.4662,0,U,43024,999,47604,.22400301E-3,.7261E-4,0
IRIDIUM 116,2017-083C,2026-07-01T10:44:47.216544,14.34217412,.00021462,86.3972,316.0391,101.5869,258.5568,0,U,43072,999,44621,-.6867506E-5,.1E-7,0
IRIDIUM 130,2017-083D,2026-07-01T03:17:15.090144,14.34217688,.00020497,86.3985,316.4455,98.0449,262.0980,0,U,43073,999,44611,.21947822E-4,.81E-6,0
LKW-2,2017-084A,2026-07-01T15:32:01.235328,15.26532550,.00025748,97.1181,221.7683,145.2753,214.8655,0,U,43080,999,47389,.38612999E-3,.10025E-3,0
SUPERVIEW-1 03,2018-002A,2026-07-01T15:51:08.178048,15.39777656,.00475141,97.3136,267.4794,128.5040,232.0482,0,U,43099,999,47059,.53623584E-3,.22046E-3,0
CARTOSAT-2F,2018-004A,2026-07-01T15:11:07.024416,15.19182177,.00014809,97.4784,242.1264,163.4345,196.6938,0,U,43111,999,46952,.3452217E-3,.7195E-4,0
LKW-3,2018-006A,2026-07-01T15:39:35.472960,15.35522364,.00018732,97.6618,343.7946,237.8374,122.2688,0,U,43146,999,47093,.47576449E-3,.16356E-3,0
