TANSAT                  
1 41898U 16081A   26182.64092683  .00000197  00000+0  51621-4 0  9998
2 41898  98.5359 183.3257 0019087 264.8743  95.0278 14.59961752506730
JILIN-1 03              
1 41914U 17002B   26182.62932949  .00015899  00000+0  37518-3 0  9990
2 41914  97.1942 189.5128 0007902 114.9251 245.2819 15.41926993524087
CARTOSAT-2D             
1 41948U 17008A   26182.64844103  .00006391  00000+0  30569-3 0  9995
2 41948  97.4098 241.6848 0005166 177.5948 182.5312 15.19317886519777
CARTOSAT-2E             
1 42767U 17036C   26182.60038072  .00005591  00000+0  26824-3 0  9992
2 42767  97.4269 242.1654 0002330 242.5200 117.5798 15.19277709500339
IRIDIUM 113             
1 42803U 17039A   26182.12429690 -.00000060  00000+0 -28653-4 0  9994
2 42803  86.3980 316.3529 0002082  90.0078 270.1356 14.34216821473187
NORSAT 2                
1 42828U 17042D   26182.22812904  .00013452  00000+0  58760-3 0  9998
2 42828  97.4041 355.4479 0009352  10.4138 349.7291 15.22193847489877
TECHNOSAT               
1 42829U 17042E   26182.01208191  .00002820  00000+0  20199-3 0  9995
2 42829  97.4293 339.1453 0018810  50.5615 309.7273 15.05039143488786
FLYING LAPTOP           
1 42831U 17042G   26182.64980963  .00004505  00000+0  35368-3 0  9997
2 42831  97.4751 337.6318 0020015  75.5812 284.7632 15.01238707488624
WNISAT 1R               
1 42835U 17042L   26182.21728851  .00002571  00000+0  20130-3 0  9992
2 42835  97.4836 337.8382 0012019 105.7604 254.4948 15.01820556488617
LEMUR-2-GREENBERG       
1 42837U 17042N   26182.46099547  .00022792  00000+0  74362-3 0  9997
2 42837  97.3818   3.0237 0007383 318.3895  41.6784 15.31767963490578
LEMUR-2-FURIAUS         
1 42840U 17042R   26182.46469311  .00023230  00000+0  78285-3 0  9997
2 42840  97.3765   0.9501 0007090  22.2309 337.9238 15.30720188490391
CORVUS BC2              
1 42846U 17042X   26181.41407017  .00002906  00000+0  20105-3 0  9997
2 42846  97.4068 342.2504 0014301  69.6054 290.6709 15.06373686489053
CORVUS BC1              
1 42847U 17042Y   26182.00499570  .00004247  00000+0  29071-3 0  9990
2 42847  97.4105 343.6415 0012658  46.1860 314.0412 15.06544991489174
VRSS-2                  
1 42954U 17060A   26182.64366123  .00000565  00000+0  78717-4 0  9997
2 42954  97.6503 219.7190 0018440  55.3672 304.9277 14.81216762470595
MOHAMMED VI-A           
1 43005U 17070A   26182.64002564  .00001236  00000+0  18223-3 0  9993
2 43005  97.9559 254.7720 0001198  83.3023 276.8323 14.77089284466112
FENGYUN 3D              
1 43010U 17072A   26182.59467751 -.00000243  00000+0 -93169-4 0  9990
2 43010  99.0130 157.2776 0002209  38.5552 321.5781 14.19741243447039
NOAA 20 (JPSS-1)        
1 43013U 17073A   26182.59200249  .00000068  00000+0  53440-4 0  9992
2 43013  98.7773 121.9267 0000836 133.0369 227.0877 14.19514335446513
MAKERSAT 0              
1 43016U 17073D   26182.22015336  .00024201  00000+0  64730-3 0  9994
2 43016  97.4603  64.8514 0104883 222.2332 137.0798 15.32553580468610
RADFXSAT (FOX-1B)       
1 43017U 17073E   26182.62725419  .00007579  00000+0  33156-3 0  9996
2 43017  97.4683  49.5473 0148227 278.8639  79.5834 15.12909396467573
JILIN-1 04              
1 43022U 17074A   26182.61644982  .00015600  00000+0  35780-3 0  9996
2 43022  97.4874 292.6172 0005010 135.4583 224.7068 15.42815051476497
JILIN-1 05              
1 43023U 17074B   26182.60269265  .00009452  00000+0  28872-3 0  9995
2 43023  97.4880 288.9538 0005627 163.8482 196.2941 15.34099686476218
JILIN-1 06              
1 43024U 17074C   26182.57623864  .00007261  00000+0  22400-3 0  9998
2 43024  97.4806 285.9181 0006994 176.6628 183.4662 15.33863712476047
IRIDIUM 116             
1 43072U 17083C   26182.44776871  .00000001  00000+0 -68675-5 0  9996
2 43072  86.3972 316.0391 0002146 101.5869 258.5568 14.34217412446214
IRIDIUM 130             
1 43073U 17083D   26182.13698021  .00000081  00000+0  21948-4 0  9991
2 43073  86.3985 316.4455 0002049  98.0449 262.0980 14.34217688446112
LKW-2                   
1 43080U 17084A   26182.64723652  .00010025  00000+0  38613-3 0  9990
2 43080  97.1181 221.7683 0002574 145.2753 214.8655 15.26532550473894
SUPERVIEW-1 03          
1 43099U 18002A   26182.66051132  .00022046  00000+0  53624-3 0  9995
2 43099  97.3136 267.4794 0047514 128.5040 232.0482 15.39777656470598
CARTOSAT-2F             
1 43111U 18004A   26182.63272019  .00007195  00000+0  34522-3 0  9992
2 43111  97.4784 242.1264 0001480 163.4345 196.6938 15.19182177469521
LKW-3                   
1 43146U 18006A   26182.65249390  .00016356  00000+0  47576-3 0  9992
2 43146  97.6618 343.7946 0001873 237.8374 122.2688 15.35522364470934
